COSMOS 2576             
1 59773U 24092A   26068.82603826  .00015211  00000+0  56283-3 0  9991
2 59773  97.4253 186.0053 0005946 159.7731 200.3745 15.27760963101271
STARLINK-36460          
1 67432U 26005AE  26068.50692564  .00037717  00000+0  13729-2 0  9992
2 67432  42.9953 239.4247 0000719 264.3929  95.6841 15.27585471  8656
